0 SL-6 R/B(2)
1 13169U 82029D   13282.37202500 -.00000328  00000-0  00000+0 0  6424
2 13169 069.5364 205.8646 5122770 090.0391 041.2591 02.04145498234415
0 SL-6 R/B(2)
1 13169U 82029D   13290.36393146 -.00000266  00000-0  00000+0 0  6431
2 13169 069.5353 205.5015 5121006 089.7814 154.7115 02.04137719234572
0 SL-6 R/B(2)
1 13169U 82029D   13294.51627736  .00000324  00000-0  00000+0 0  6442
2 13169 069.5344 205.3050 5120096 089.6447 326.2673 02.04132669234651
